{"generatedAt":"2026-04-02T07:22:13.043864Z","satellites":[{"name":"ONEWEB-0182","tle1":"1 48228U 21031U   26091.83601520 -.00000057  00000+0 -18800-3 0  9997","tle2":"2 48228  87.8946 304.9462 0001421  87.7974 272.3318 13.14503714238408"},{"name":"ONEWEB-0186","tle1":"1 48229U 21031V   26091.84710916 -.00000406  00000+0 -11307-2 0  9991","tle2":"2 48229  87.8945 304.9318 0001634  82.2157 277.9158 13.14502110238353"},{"name":"ONEWEB-0181","tle1":"1 48230U 21031W   26091.82491630  .00000091  00000+0  21212-3 0  9995","tle2":"2 48230  87.8936 304.9754 0001710  79.4102 280.7220 13.14503268238203"},{"name":"ONEWEB-0188","tle1":"1 48231U 21031X   26091.86297109 -.00000076  00000+0 -23876-3 0  9998","tle2":"2 48231  87.8936 304.9657 0001613  85.1103 275.0211 13.14504032238110"},{"name":"ONEWEB-0220","tle1":"1 48232U 21031Y   26091.14144166  .00000053  00000+0  10828-3 0  9990","tle2":"2 48232  87.8948 305.0719 0001533  77.3726 282.7575 13.14504116238289"},{"name":"ONEWEB-0165","tle1":"1 48233U 21031Z   26091.85505599 -.00000130  00000+0 -38521-3 0  9998","tle2":"2 48233  87.8952 304.9462 0001926  77.2110 282.9235 13.14504298238332"},{"name":"ONEWEB-0199","tle1":"1 48234U 21031AA  26091.83919464 -.00000110  00000+0 -32992-3 0  9991","tle2":"2 48234  87.8953 304.9314 0001661  92.2547 267.8773 13.14501764238230"},{"name":"ONEWEB-0203","tle1":"1 48235U 21031AB  26091.82966912 -.00000051  00000+0 -17226-3 0  9998","tle2":"2 48235  87.8955 304.9348 0001809  87.0516 273.0821 13.14500762238243"},{"name":"ONEWEB-0197","tle1":"1 48236U 21031AC  26091.95638982  .00000333  00000+0  86436-3 0  9996","tle2":"2 48236  87.8944 304.9057 0001341  89.2012 270.9271 13.14504862238177"},{"name":"ONEWEB-0194","tle1":"1 48237U 21031AD  26091.85980119 -.00000092  00000+0 -28226-3 0  9995","tle2":"2 48237  87.8946 304.9429 0001799  91.9948 268.1388 13.14504039238330"},{"name":"ONEWEB-0193","tle1":"1 48238U 21031AE  26091.95176653  .00000215  00000+0  54542-3 0  9992","tle2":"2 48238  87.8944 304.9164 0001890  98.0473 262.0871 13.14504586238290"},{"name":"ONEWEB-0191","tle1":"1 48239U 21031AF  26091.88677611  .00000965  00000+0  25691-2 0  9999","tle2":"2 48239  87.8946 304.9250 0001478  87.3110 272.8188 13.14494936238141"},{"name":"ONEWEB-0195","tle1":"1 48240U 21031AG  26091.86375927 -.00000007  00000+0 -53059-4 0  9994","tle2":"2 48240  87.8944 304.9257 0001887  75.0313 285.1026 13.14504481238124"},{"name":"ONEWEB-0201","tle1":"1 48241U 21031AH  26091.85200960 -.00000180  00000+0 -51917-3 0  9990","tle2":"2 48241  87.8938 304.9549 0001340  76.0291 284.0987 13.14502199238355"},{"name":"ONEWEB-0207","tle1":"1 48242U 21031AJ  26091.83204463 -.00000010  00000+0 -60232-4 0  9994","tle2":"2 48242  87.8958 304.9339 0001404  81.1932 278.9357 13.14500770238261"},{"name":"ONEWEB-0208","tle1":"1 48243U 21031AK  26091.88993391  .00000221  00000+0  56169-3 0  9990","tle2":"2 48243  87.8947 304.9341 0001857  78.9626 281.1713 13.14501170238288"},{"name":"ONEWEB-0200","tle1":"1 48244U 21031AL  26091.85345811 -.00000206  00000+0 -59029-3 0  9999","tle2":"2 48244  87.8941 304.9293 0001666  81.3773 278.7545 13.14504137238201"},{"name":"ONEWEB-0217","tle1":"1 48245U 21031AM  26091.94542875  .00000086  00000+0  19642-3 0  9990","tle2":"2 48245  87.8947 304.9116 0001866  75.7440 284.3897 13.14504520238166"},{"name":"ONEWEB-0211","tle1":"1 48767U 21045A   26091.94285730  .00000095  00000+0  21686-3 0  9999","tle2":"2 48767  87.8928 274.3147 0002308  82.4168 277.7225 13.16192258234410"},{"name":"ONEWEB-0223","tle1":"1 48768U 21045B   26091.90776447 -.00000110  00000+0 -32700-3 0  9995","tle2":"2 48768  87.8934 274.4097 0002163  91.0942 269.0436 13.15549362234372"},{"name":"ONEWEB-0230","tle1":"1 48769U 21045C   26091.95530300  .00000183  00000+0  45312-3 0  9998","tle2":"2 48769  87.8925 274.4210 0001614  97.4471 262.6842 13.15549719234643"},{"name":"ONEWEB-0237","tle1":"1 48770U 21045D   26091.94420981  .00000175  00000+0  43073-3 0  9995","tle2":"2 48770  87.8925 274.4248 0001978  96.4135 263.7220 13.15549718234365"},{"name":"ONEWEB-0235","tle1":"1 48771U 21045E   26091.91885179 -.00000121  00000+0 -35451-3 0  9991","tle2":"2 48771  87.8935 274.4082 0002201  93.4802 266.6580 13.15549372234357"},{"name":"ONEWEB-0242","tle1":"1 48772U 21045F   26091.91250989 -.00000109  00000+0 -32349-3 0  9996","tle2":"2 48772  87.8936 274.4055 0001838  97.6039 262.5300 13.15549742234392"},{"name":"ONEWEB-0241","tle1":"1 48773U 21045G   26091.89983971 -.00000074  00000+0 -23057-3 0  9995","tle2":"2 48773  87.8926 274.4351 0002052  86.7801 273.3564 13.15549845234303"},{"name":"ONEWEB-0243","tle1":"1 48774U 21045H   26091.93153752 -.00000006  00000+0 -48774-4 0  9996","tle2":"2 48774  87.8925 274.4399 0002144 104.7275 255.4093 13.15548070234333"},{"name":"ONEWEB-0222","tle1":"1 48775U 21045J   26091.91489472 -.00000140  00000+0 -40629-3 0  9995","tle2":"2 48775  87.8934 274.4051 0001878  91.7455 268.3890 13.15549656234370"},{"name":"ONEWEB-0244","tle1":"1 48776U 21045K   26091.94104219  .00000089  00000+0  20284-3 0  9997","tle2":"2 48776  87.8933 274.3904 0001859  95.5149 264.6194 13.15549338234943"},{"name":"ONEWEB-0247","tle1":"1 48777U 21045L   26091.93787518  .00000050  00000+0  98444-4 0  9998","tle2":"2 48777  87.8924 274.4335 0002529 102.0966 258.0448 13.15549632234383"},{"name":"ONEWEB-0245","tle1":"1 48778U 21045M   26091.93311018 -.00000009  00000+0 -58053-4 0  9995","tle2":"2 48778  87.8934 274.4064 0001853  87.2845 272.8497 13.15549488234357"},{"name":"ONEWEB-0229","tle1":"1 48779U 21045N   26091.92835982 -.00000032  00000+0 -11995-3 0  9995","tle2":"2 48779  87.8932 274.4060 0001800  98.2435 261.8900 13.15550165234385"},{"name":"ONEWEB-0228","tle1":"1 48780U 21045P   26091.96178553  .00000123  00000+0  29273-3 0  9992","tle2":"2 48780  87.8939 274.3862 0001805  95.1312 265.0024 13.15550015234307"},{"name":"ONEWEB-0232","tle1":"1 48781U 21045Q   26091.93629766  .00000020  00000+0  19889-4 0  9996","tle2":"2 48781  87.8944 274.3930 0001729  93.9196 266.2132 13.15548375234625"},{"name":"ONEWEB-0231","tle1":"1 48782U 21045R   26091.91410083 -.00000106  00000+0 -31659-3 0  9990","tle2":"2 48782  87.8927 274.4200 0001996  92.2153 267.9206 13.15549380234312"},{"name":"ONEWEB-0234","tle1":"1 48783U 21045S   26091.95200098  .00000162  00000+0  39734-3 0  9990","tle2":"2 48783  87.8926 274.3903 0001540  63.5362 296.5926 13.15547300234451"},{"name":"ONEWEB-0238","tle1":"1 48784U 21045T   26091.95227592  .00000162  00000+0  39520-3 0  9992","tle2":"2 48784  87.8925 274.3838 0001550  79.0230 281.1075 13.15549645234353"},{"name":"ONEWEB-0240","tle1":"1 48785U 21045U   26091.89746434  .00000001  00000+0 -31138-4 0  9998","tle2":"2 48785  87.8943 274.4009 0001995  87.3098 272.8260 13.15550115234371"},{"name":"ONEWEB-0246","tle1":"1 48786U 21045V   26091.89191961  .00000040  00000+0  71586-4 0  9991","tle2":"2 48786  87.8936 274.4095 0001777  96.9229 263.2104 13.15549428234241"},{"name":"ONEWEB-0210","tle1":"1 48787U 21045W   26091.94262206  .00000165  00000+0  40381-3 0  9995","tle2":"2 48787  87.8935 274.3959 0002421 109.9123 250.2269 13.15550056234296"},{"name":"ONEWEB-0214","tle1":"1 48788U 21045X   26091.95134346  .00000181  00000+0  44784-3 0  9999","tle2":"2 48788  87.8937 274.3904 0001918 105.9522 254.1820 13.15549584234265"},{"name":"ONEWEB-0221","tle1":"1 48789U 21045Y   26091.95846194  .00000146  00000+0  35367-3 0  9999","tle2":"2 48789  87.8937 274.3986 0001925  93.7447 266.3904 13.15547179234350"},{"name":"ONEWEB-0213","tle1":"1 48790U 21045Z   26091.94736212  .00000150  00000+0  36516-3 0  9991","tle2":"2 48790  87.8935 274.4046 0002013  97.2832 262.8527 13.15550413234418"},{"name":"ONEWEB-0212","tle1":"1 48791U 21045AA  26091.92440176 -.00000058  00000+0 -18826-3 0  9994","tle2":"2 48791  87.8933 274.4039 0001712  92.8748 267.2579 13.15549362234407"},{"name":"ONEWEB-0227","tle1":"1 48792U 21045AB  26091.92361176 -.00000066  00000+0 -20969-3 0  9997","tle2":"2 48792  87.8933 274.4057 0001795  91.6914 268.4422 13.15549485234351"},{"name":"ONEWEB-0226","tle1":"1 48793U 21045AC  26091.91726525 -.00000126  00000+0 -36846-3 0  9998","tle2":"2 48793  87.8924 274.4146 0001967  99.2657 260.8695 13.15549694234327"},{"name":"ONEWEB-0224","tle1":"1 48794U 21045AD  26091.95687265  .00000190  00000+0  47096-3 0  9998","tle2":"2 48794  87.8924 274.4428 0002148  70.1116 290.0245 13.15551182234254"},{"name":"ONEWEB-0233","tle1":"1 48795U 21045AE  26091.96151206  .00000139  00000+0  33614-3 0  9995","tle2":"2 48795  87.8926 274.4502 0001998  91.2446 268.8913 13.15550432234276"},{"name":"ONEWEB-0190","tle1":"1 48796U 21045AF  26091.94894571  .00000061  00000+0  12699-3 0  9997","tle2":"2 48796  87.8923 274.4143 0002448  96.5193 263.6216 13.15549900234348"},{"name":"ONEWEB-0236","tle1":"1 48797U 21045AG  26091.96638446  .00000109  00000+0  25461-3 0  9991","tle2":"2 48797  87.8924 274.4218 0001589  89.9853 270.1459 13.15549774234236"},{"name":"ONEWEB-0248","tle1":"1 48798U 21045AH  26091.90301493 -.00000020  00000+0 -85895-4 0  9997","tle2":"2 48798  87.8937 274.4103 0002160  87.2088 272.9290 13.15547618234385"},{"name":"ONEWEB-0225","tle1":"1 48799U 21045AJ  26091.92518829 -.00000075  00000+0 -23316-3 0  9992","tle2":"2 48799  87.8921 274.4195 0002315  95.7281 264.4113 13.15550037234391"},{"name":"ONEWEB-0215","tle1":"1 48800U 21045AK  26091.89508813 -.00000042  00000+0 -14686-3 0  9997","tle2":"2 48800  87.8937 274.4010 0002471  92.2284 267.9130 13.15549291234268"},{"name":"ONEWEB-0216","tle1":"1 48801U 21045AL  26091.90459023 -.00000075  00000+0 -23245-3 0  9995","tle2":"2 48801  87.8932 274.4166 0001669  95.4741 264.6580 13.15547933234272"},{"name":"ONEWEB-0239","tle1":"1 48802U 21045AM  26091.90934042 -.00000099  00000+0 -29720-3 0  9995","tle2":"2 48802  87.8923 274.4287 0002526  85.7454 274.3965 13.15546809234314"}]}